*******************************************************************************
 Revised: June 21, 2016                 Mars                            499 / 4
 
 PHYSICAL DATA (updated 2019-Oct-29):
  Vol. mean radius (km) = 3389.92+-0.04   Density (g/cm^3)      =  3.933(5+-4)
  Mass x10^23 (kg)      =    6.4171       Flattening, f         =  1/169.779
  Volume (x10^10 km^3)  =   16.318        Equatorial radius (km)=  3396.19
  Sidereal rot. period  =   24.622962 hr  Sid. rot. rate, rad/s =  0.0000708822 
  Mean solar day (sol)  =   88775.24415 s Polar gravity m/s^2   =  3.758
  Core radius (km)      = ~1700           Equ. gravity  m/s^2   =  3.71
  Geometric Albedo      =    0.150                                              

  GM (km^3/s^2)         = 42828.375214    Mass ratio (Sun/Mars) = 3098703.59
  GM 1-sigma (km^3/s^2) = +- 0.00028      Mass of atmosphere, kg= ~ 2.5 x 10^16
  Mean temperature (K)  =  210            Atmos. pressure (bar) =    0.0056 
  Obliquity to orbit    =   25.19 deg     Max. angular diam.    =  17.9"
  Mean sidereal orb per =    1.88081578 y Visual mag. V(1,0)    =  -1.52
  Mean sidereal orb per =  686.98 d       Orbital speed,  km/s  =  24.13
  Hill's sphere rad. Rp =  319.8          Escape speed, km/s    =   5.027
                                 Perihelion  Aphelion    Mean
  Solar Constant (W/m^2)         717         493         589
  Maximum Planetary IR (W/m^2)   470         315         390
  Minimum Planetary IR (W/m^2)    30          30          30
*******************************************************************************


*******************************************************************************
Ephemeris / WWW_USER Wed Apr 17 07:47:50 2024 Pasadena, USA      / Horizons
*******************************************************************************
Target body name: Mars (499)                      {source: mar097}
Center body name: Solar System Barycenter (0)     {source: DE441}
Center-site name: BODY CENTER
*******************************************************************************
Start time      : A.D. 2024-Apr-17 00:00:00.0000 TDB
Stop  time      : A.D. 2024-May-17 00:00:00.0000 TDB
Step-size       : 1440 minutes
*******************************************************************************
Center geodetic : 0.0, 0.0, 0.0                   {E-lon(deg),Lat(deg),Alt(km)}
Center cylindric: 0.0, 0.0, 0.0                   {E-lon(deg),Dxy(km),Dz(km)}
Center radii    : (undefined)
Output units    : KM-S
Calendar mode   : Mixed Julian/Gregorian
Output type     : GEOMETRIC cartesian states
Output format   : 3 (position, velocity, LT, range, range-rate)
Reference frame : Ecliptic of J2000.0
*******************************************************************************
JDTDB
   X     Y     Z
   VX    VY    VZ
   LT    RG    RR
*******************************************************************************
$$SOE
2460441.500000000 = A.D. 2024-May-11 00:00:00.0000 TDB 
 X = 1.901779079030013E+08 Y =-7.862135461831282E+07 Z =-6.297059231827278E+06
 VX= 1.008781486071848E+01 VY= 2.449202385484771E+01 VZ= 2.661817645639051E-01
 LT= 6.867582250487685E+02 RG= 2.058849363390875E+08 RR=-4.270700801209514E-02
2460442.500000000 = A.D. 2024-May-12 00:00:00.0000 TDB 
 X = 1.910387478632303E+08 Y =-7.650090292452861E+07 Z =-6.273706558898021E+06
 VX= 9.838853935271374E+00 VY= 2.459204536086985E+01 VZ= 2.743841641681559E-01
 LT= 6.867496683131641E+02 RG= 2.058823710942882E+08 RR=-1.667332844577197E-02
2460443.500000000 = A.D. 2024-May-13 00:00:00.0000 TDB 
 X = 1.918780309005482E+08 Y =-7.437192900326422E+07 Z =-6.249646561198432E+06
 VX= 9.588817988889058E+00 VY= 2.468929541050963E+01 VZ= 2.825548484179379E-01
 LT= 6.867486145603244E+02 RG= 2.058820551871342E+08 RR= 9.360315653691796E-03
2460444.500000000 = A.D. 2024-May-14 00:00:00.0000 TDB 
 X = 1.926956656945189E+08 Y =-7.223467288303708E+07 Z =-6.224882029388964E+06
 VX= 9.337743200369525E+00 VY= 2.478376074898165E+01 VZ= 2.906926461868355E-01
 LT= 6.867550632325136E+02 RG= 2.058839884504207E+08 RR= 3.539014466858247E-02
2460445.500000000 = A.D. 2024-May-15 00:00:00.0000 TDB 
 X = 1.934915640582080E+08 Y =-7.008937571217744E+07 Z =-6.199415854533996E+06
 VX= 9.085665941687900E+00 VY= 2.487542872310855E+01 VZ= 2.987963965194922E-01
 LT= 6.867690126798954E+02 RG= 2.058881703895390E+08 RR= 6.141237085333415E-02
2460446.500000000 = A.D. 2024-May-16 00:00:00.0000 TDB 
 X = 1.942656409544792E+08 Y =-6.793627970853128E+07 Z =-6.173251027398299E+06
 VX= 8.832622761709738E+00 VY= 2.496428727288077E+01 VZ= 3.068649504636074E-01
 LT= 6.867904601608209E+02 RG= 2.058946001825636E+08 RR= 8.742320017827748E-02
2460447.500000000 = A.D. 2024-May-17 00:00:00.0000 TDB 
 X = 1.950178145112267E+08 Y =-6.577562810874603E+07 Z =-6.146390637681261E+06
 VX= 8.578650368569228E+00 VY= 2.505032491200469E+01 VZ= 3.148971724605154E-01
 LT= 6.868194018421692E+02 RG= 2.059032766803536E+08 RR= 1.134188355954846E-01
